{
    "links": {
        "self": "http://www.neowsapp.com/rest/v1/neo/3605940?api_key=iIulBulltgU6a56xZRHN4H3l9WmuAYTsLGpBGhQ2"
    },
    "id": "3605940",
    "neo_reference_id": "3605940",
    "name": "(2012 MZ6)",
    "designation": "2012 MZ6",
    "nasa_jpl_url": "http://ssd.jpl.nasa.gov/sbdb.cgi?sstr=3605940",
    "absolute_magnitude_h": 21.5,
    "estimated_diameter": {
        "kilometers": {
            "estimated_diameter_min": 0.1332155667,
            "estimated_diameter_max": 0.2978790628
        },
        "meters": {
            "estimated_diameter_min": 133.2155666981,
            "estimated_diameter_max": 297.8790627982
        },
        "miles": {
            "estimated_diameter_min": 0.0827762899,
            "estimated_diameter_max": 0.1850934111
        },
        "feet": {
            "estimated_diameter_min": 437.0589598459,
            "estimated_diameter_max": 977.2935443908
        }
    },
    "is_potentially_hazardous_asteroid": true,
    "close_approach_data": [
        {
            "close_approach_date": "2012-05-10",
            "close_approach_date_full": "2012-May-10 21:22",
            "epoch_date_close_approach": 1336684920000,
            "relative_velocity": {
                "kilometers_per_second": "14.350100957",
                "kilometers_per_hour": "51660.3634451586",
                "miles_per_hour": "32099.7408306876"
            },
            "miss_distance": {
                "astronomical": "0.0845107831",
                "lunar": "32.8746946259",
                "kilometers": "12642633.143791997",
                "miles": "7855767.9587516786"
            },
            "orbiting_body": "Venus"
        },
        {
            "close_approach_date": "2012-06-11",
            "close_approach_date_full": "2012-Jun-11 17:16",
            "epoch_date_close_approach": 1339434960000,
            "relative_velocity": {
                "kilometers_per_second": "17.0676277874",
                "kilometers_per_hour": "61443.4600347037",
                "miles_per_hour": "38178.5765976747"
            },
            "miss_distance": {
                "astronomical": "0.1190973519",
                "lunar": "46.3288698891",
                "kilometers": "17816710.166880453",
                "miles": "11070790.3383301314"
            },
            "orbiting_body": "Earth"
        }
    ],
    "orbital_data": {
        "orbit_id": "12",
        "orbit_determination_date": "2017-04-06 08:49:29",
        "first_observation_date": "2012-06-21",
        "last_observation_date": "2012-07-15",
        "data_arc_in_days": 24,
        "observations_used": 58,
        "orbit_uncertainty": "8",
        "minimum_orbit_intersection": ".0146797",
        "jupiter_tisserand_invariant": "3.331",
        "epoch_osculation": "2456106.5",
        "eccentricity": ".7120304354484912",
        "semi_major_axis": "2.141115534487414",
        "inclination": "1.35788472249114",
        "ascending_node_longitude": "317.1961323222211",
        "orbital_period": "1144.349226827729",
        "perihelion_distance": ".6165761081208118",
        "perihelion_argument": "225.0474075681176",
        "aphelion_distance": "3.665654960854017",
        "perihelion_time": "2456044.316469341886",
        "mean_anomaly": "19.56227217365966",
        "mean_motion": ".3145892805799873",
        "equinox": "J2000",
        "orbit_class": {
            "orbit_class_type": "APO",
            "orbit_class_description": "Near-Earth asteroid orbits which cross the Earth’s orbit similar to that of 1862 Apollo",
            "orbit_class_range": "a (semi-major axis) > 1.0 AU; q (perihelion) < 1.017 AU"
        }
    },
    "is_sentry_object": false
}